;lat;lon;name_ru;opening_hours;website;star
0;55.605121;37.3538469;Московский дворик;;;1
1;55.9091691;37.866109;Кружка;;;1
2;55.8649133;37.6055916;Кружка;;http://www.kruzhka.ru/;1
3;55.7592693;37.5800979;Кружка;;http://www.kruzhka.ru/;1
4;55.6595234;37.7523825;Кружка;"Mo-Fr 12:00-00:00; Sa-Su 12:00-04:00";http://www.kruzhka.ru/;1
5;55.7052;37.68883;Кружка;;http://www.kruzhka.ru/;1
6;55.6302;37.5150501;Кружка;;http://www.kruzhka.ru/;1
7;55.6512308;37.7445151;Кружка;;http://www.kruzhka.ru/;1
8;55.6705186;37.5561369;Кружка;;http://www.kruzhka.ru/;1
9;55.73075;37.6635;Кружка;;http://www.kruzhka.ru/;1
10;55.63945;37.6064;Кружка;;http://www.kruzhka.ru/;1
11;55.765603;37.638956;Кружка;"Mo-Su 12:00-24:00; Fr,Sa 12:00-04:00";http://www.kruzhka.ru;1
12;55.5684036;37.5646238;Грин-клуб;;;1
13;55.6122075;37.7212993;Чешска пивница;;;1
14;55.6729967;37.6646315;Шпилька;;;1
15;55.7262734;37.4171008;;;;1
16;55.8688272;37.6629616;Подвальчик;12:00-02:00;;1
17;55.6728806;37.6646143;Пена;;;1
18;55.8647502;37.6612355;Империал;;;1
19;55.8599013;37.6590427;Бирлайн;;;1
20;55.866905;37.6825864;Погребок;;;1
21;55.7106791;37.7311721;ДискоБар;;;1
22;55.8189999;37.6490151;ШтирБирЛиц;"Mo-Su 12:00-24:00; Th-Sa 12:00-03:00";http://shtirbeer.ru;1
23;55.8698139;37.6764585;Старая карта;;;1
24;55.8696788;37.6770095;Тройка;;;1
25;55.6314274;37.5188668;Чёрная каракатица;;;1
26;55.6261314;37.7497335;;;;1
27;55.6144522;37.7434545;;;;1
28;55.7399994;37.6638934;Колбасофф;"Mo-Fr 12:00-24:00; Sa,Su 00:00-02:00,12:00-24:00";;1
29;55.7679243;37.6292201;Dagda;;https://vk.com/dagda_pub;1
30;55.7972707;37.5845376;Ampere;;http://ampere.pub;1
31;55.6336906;37.6137677;;;;1
32;55.7964166;37.8005949;Панчо и Санчо;;;1
33;55.792746;37.5925363;Золотая вобла;;;1
34;55.7934908;37.8039821;Бочка;;;1
35;55.7724813;37.6813702;Mистер Beer'kin;;;1
36;55.6864974;37.5470291;Линдерхоф;;http://www.linderhof.ru;1
37;55.7715283;37.6815004;Пьяный Дятел;Mo-Su 11:00-23:30;;1
38;55.6420089;37.5245483;Дорф;"Su-Th 12:00-00:00; Fr-Sa 12:00-02:00";restorandorf.ru;1
39;55.6420954;37.5239009;Дранкен Дак Паб;;;1
40;55.7834298;37.7212932;Кружка;;http://www.kruzhka.ru/;1
41;55.7411956;37.6283732;Молли Гвинн'з;;http://www.rmcom.ru/page-molly-gwynns;1
42;55.8986035;37.5912853;Кружка;Mo-Su 12:00-24:00;http://www.kruzhka.ru/;1
43;55.7629963;37.5880578;Барракуда;;;1
44;55.7554915;37.6005258;Джон Донн;;http://www.john-donne.ru;1
45;55.7719238;37.636532;Boondock;"Mo-Fr 00:00-00:30,12:00-24:00; Sa 00:00-03:00,15:00-24:00; Su 00:00-00:30,15:00-24:00";http://www.boondockpub.ru;1
46;55.7583364;37.6398196;Золотая Вобла;24/7;http://vobla.ru;1
47;55.7653128;37.6309216;Лига Пап;24/7;http://www.ligapap.ru;1
48;55.8270766;37.4473841;Пивной клуб Крокодил;;;1
49;55.70882;37.4057694;Гертруда;Mo-Su 11:00-03:00;;1
50;55.747706;37.588259;Плотников паб;;http://www.plotnikov-pub.ru/;1
51;55.7819087;37.5815353;Прогноз погоды;;;1
52;55.8156723;37.6394595;Бирхаус;12:00-23:00;;1
53;55.8447635;37.3504301;Bastards;;;1
54;55.8864751;37.6594404;Bar Bear;;;1
55;55.897567;37.6049697;Дом пива;;http://www.dom-piva.ru/;1
56;55.8992322;37.5859204;"Разливное пиво ""Лит.Ра""";;http://www.litra-beer.ru/;1
57;55.7675763;37.6351529;Bobby Dazzler;"Mo-Th 11:00-24:00; Fr 11:00-03:00; Sa 13:00-06:00; Su 13:00-24:00";http://www.bobbydazzler.ru;1
58;55.7625156;37.634405;Mollie's Pub;"Mo,Su 12:00-24:00; Tu-Th 00:00-01:00,12:00-24:00; Fr,Sa 00:00-03:00,12:00-24:00";http://www.molliespub.ru;1
59;55.7445693;37.6273469;Панч и Джуди;"Mo-Su 12:00-24:00; Fr,Sa 12:00-06:00";http://pjpub.ru;1
60;55.8031081;37.5127597;Кружка;;http://www.kruzhka.ru/;1
61;55.781581;37.7078462;СПБ;;;1
62;55.6535401;37.620576;Carlsberg;;;1
63;55.7847828;37.4561101;Старое место;;;1
64;55.8028512;37.5253347;Черчилль;Mo-Su 12:00-23:00;http://www.churchillspub.ru;1
65;55.8435862;37.3639331;Кружка;"Mo-Fr 12:00-24:00; Sa,Su 00:00-04:00,12:00-24:00";http://www.kruzhka.ru;1
66;55.7969048;37.4920204;;;;1
67;55.6560637;37.5978993;Ниагара;;http://www.niagara-club.ru/;1
68;55.7939111;37.4948841;Интерпаб;"Mo-We 12:00-24:00; Fr-Sa 12:00-24:05; Su 12:00-24:00";http://www.interpab.ru;1
69;55.646632;37.7459974;Аладдин;;;1
70;55.7452543;37.6307187;Белфаст;"Mo-Th 12:00-24:00; Fr 12:00-03:00; Sa,Su 14:00-24:00";http://www.belfast-pub.ru;1
71;55.8496787;37.4223558;BierЛога;;;1
72;55.7436282;37.6302444;Гроссбир;Mo-Su 08:30-24:00;http://www.grossbeer.ru/;1
73;55.73848;37.659736;5 океан;;http://www.fifth-ocean.ru;1
74;55.7616265;37.6405117;Union Jack;Mo-Su 12:00-00:00;http://unionj.su;1
75;55.7417911;37.6164952;Sally O'Brien's;;;1
76;55.7350491;37.5857587;Джон Донн;;http://www.john-donne.ru;1
77;55.8879472;37.5895725;Сварня;;;1
78;55.7502596;37.5936091;Doolin House;;http://doolin-house.ru;1
79;55.7486975;37.5885149;Эрик Рыжий;"Mo-Fr 08:00-24:00; Sa,Su 00:00-02:00,08:00-24:00";http://ericthered.ru;1
80;55.642377;37.5243649;Кружка;;http://www.kruzhka.ru;1
81;55.6186478;37.7145526;Интер;Mo-Su 12:00-24:00;;1
82;55.680897;37.5566997;Конор Мак Несса;;http://www.conor-pub.ru/;1
83;55.7423983;37.6523054;Кружка;;http://www.kruzhka.ru;1
84;55.773109;37.6326163;SПБ;;;1
85;55.8634546;37.6028336;Сварня;;;1
86;55.8160836;37.7353462;Спортбар;;;1
87;55.770398;37.634213;Мохнатый шмель;;http://www.barshmel.ru;1
88;55.891599;37.6226614;Заря;;;1
89;55.8581562;37.5929519;Пентагон;;;1
90;55.805485;37.6354963;Джонни Грин Паб;;;1
91;55.7483155;37.5833995;Джон Булл;;http://rmcom.ru/page-john-bull;1
92;55.8473323;37.4389208;69 Pints;;;1
93;55.823677;37.6348558;Вилладж-Паб;"Mo-Su 11:30-24:00; Fr-Sa 11:30-02:00";http://www.village-pub.ru;1
94;55.7422148;37.6556872;Лондон Гриль;Mo-Su 12:00-00:00;http://www.londongrill.ru;1
95;55.7288978;37.6175784;Молли Гвинн'з;;http://www.rmcom.ru/page-molly-gwynns;1
96;55.7670369;37.6317192;Козловица;Mo-Su 12:00-22:00;http://www.kozlovica.ru/;1
97;55.7653031;37.6216926;Union Jack;Mo-Su 11:00-23:00;http://unionj.su;1
98;55.7388274;37.6592047;Золотая Вобла;24/7;;1
99;55.7890011;37.6102076;Локо;;;1
100;55.7745915;37.6423753;На брудершафт;;;1
101;55.7944316;37.705914;Лок Сток;Mo-Su 12:00-23:00;http://локсток.рф;1
102;55.7759902;37.6614549;Глобус Боулинг Центр;Mo-Su 12:00-05:00;;1
103;55.8044972;37.6379392;Beerлога;;;1
104;55.7687629;37.613221;Scotland Yard;"Mo,Su 12:00-24:00; Tu-Th 12:00-01:00; Fr,Sa 12:00-03:00";http://www.scotlandyardpub.ru;1
105;55.7859636;37.5954315;Мосдонер;24/7;;1
106;55.88526;37.6056083;Кладовая солнца;;;1
107;55.7691323;37.6693;Molly Malone's;"Mo-Th 12:00-00:30; Fr 12:00-02:00; Sa-Su 15:00-00:30";http://www.mollymalones-pub.ru/;1
108;55.7667471;37.634181;I like craft;"Mo-Fr 11:00-24:00; Sa,Su 00:00-01:00,11:00-24:00";;1
109;55.8859347;37.6845411;Шаровня;;;1
110;55.6625747;37.7601278;Ёрш;;;1
111;55.75816;37.6363066;Union Jack;;http://unionj.su;1
112;55.7565047;37.6271495;The Oldschool pub;;;1
113;55.752623;37.6679617;Edward's Pub;"Mo-We 10:00-22:00; Th-Su 10:00-06:00";https://www.facebook.com/edwardspub;1
114;55.7599566;37.6315631;Dark Patrick's;;http://dp-pub.ru;1
115;55.6546648;37.5392117;SПБ;"Mo-Su 12:00-24:00; Fr,Sa 12:00-05:00";http://barspb.ru;1
116;55.6749982;37.5053823;;;;1
117;55.8895112;37.5969036;Ёрш;24/7;;1
118;55.8216899;37.6604746;Ёрш;;;1
119;55.790015;37.6338146;Крылышко или ножка;"Mo-Fr 12:00-24:00; Sa,Su 14:00-24:00";https://www.facebook.com/wingorleg;1
120;55.8069196;37.5031898;Кружка;Mo-Su 12:00-24:00;http://www.kruzhka.ru;1
121;55.7400235;37.6160344;Вильям Басс;;http://www.rmcom.ru/page-william-bass;1
122;55.7614478;37.6407939;Крапива;"Mo-Th 12:00-23:00; Fr 12:00-24:00; Sa 12:00-05:00; Su 12:00-05:00";http://krapivabar.ru;1
123;55.6696224;37.5526533;Бирштольц;Mo-Su 12:00-24:00;http://www.bierschtolz.ru;1
124;55.7433193;37.6523832;Джон Донн;;http://www.john-donne.ru;1
125;55.7563485;37.6214692;Лондон Гриль;;http://www.londongrill.ru;1
126;55.8000326;37.7410068;Лондон Гриль;;http://www.londongrill.ru;1
127;55.7328326;37.6414777;Paulaner Brauhaus;"Su-Th 12:00-00:00; Fr-Sa 12:00-02:00";http://paulaner-brauhaus.ru;1
128;55.762534;37.6065381;Chelsea;24/7;http://chelsea-pub.ru;1
129;55.7649019;37.6084567;Country;12:00-23:00;http://9746723.ru;1
130;55.764763;37.6085533;Harat's;12:00-24:00;;1
131;55.7628878;37.6348296;Lion's Head Pub;;http://www.lionshead.ru;1
132;55.6945126;37.5578789;Brawler's pub;Mo-Su 12:00-24:00;www.brawlerspub.ru;1
133;55.790521;37.677575;Rainbow Pub;;;1
134;55.5957557;37.6062417;ШтирБирЛиц;Mo-Su 12:00-24:00;http://shtirbeer.ru;1
135;55.7249981;37.6064153;ШтирБирЛиц;Mo-Su 11:00-23:00;http://shtirbeer.ru;1
136;55.7652893;37.5614072;ШтирБирЛиц;"Mo-Su 12:00-23:00; Th-Sa 12:00-03:00";http://shtirbeer.ru;1
137;55.7706376;37.5965658;Шпатен-Хаус;24/7;http://www.spaten-house.ru;1
138;55.7565717;37.6098696;St.Peters & St.Anton;;http://www.realpub.ru;1
139;55.7583814;37.6101934;Кружка;;http://www.kruzhka.ru;1
140;55.7529029;37.5863989;Молли Гвинн'з;;http://www.rmcom.ru/page-molly-gwynns;1
141;55.7790422;37.5851661;OneMore Pub;"Mo-Su 12:00-24:00; Th-Sa 12:00-03:00";http://www.onemorepub.ru;1
142;55.7712221;37.6055863;Брюссель;Mo-Su 09:00-24:00;http://www.italy-group.ru;1
143;55.7720382;37.6823967;О'Хара;"Mo,Su 12:00-24:00; Tu-Th 12:00-01:00; Fr,Sa 12:00-03:00";http://www.oharapub.ru;1
144;55.7720806;37.623077;БирХаус;Mo-Su 12:00-24:00;http://www.beerhousepub.ru;1
145;55.7597632;37.6157861;British Queen;"Mo-Th 10:00-24:00; Fr 10:00-03:00; Sa 12:00-03:00; Su 12:00-24:00";http://britishqueen.ru;1
146;55.641703;37.5008963;Лондон Гриль;;http://www.londongrill.ru;1
147;55.7338104;37.6272751;Джон Донн;;http://www.john-donne.ru;1
148;55.6808121;37.7636191;"Корчма ""Кочерга""";;;1
149;55.7723701;37.683065;HopHead Craft Beer Pub;"Mo,Su 12:00-01:00; Tu,We 12:00-02:00; Th 12:00-03:00; Fr,Sa 12:00-04:00";http://www.hophead.ru;1
150;55.7410104;37.6291312;Youngs;;http://www.youngspub.ru;1
151;55.7794924;37.5801513;Шлюz;;;1
152;55.7468716;37.679516;Бостон;;;1
153;55.7773068;37.6339372;Кэйти О'Шеа'с;"Mo-We 09:00-24:00; Fr-Su 10:00-03:00";;1
154;55.6575318;37.5428396;Темпл Бар;;http://www.templebar.ru;1
155;55.7626781;37.6067977;Все твои друзья;"Mo-Su 10:00-03:00; Th-Sa 10:00-06:00";;1
156;55.7618304;37.624079;Boston Party Pub;;http://bostonpartypub.ru;1
157;55.760825;37.6238208;Капитал;;;1
158;55.7619975;37.6260861;Mandy’s Apothecary Irish Pub;"Mo-Fr 00:00-02:00,12:00-24:00; Sa,Su 00:00-04:00,12:00-24:00";;1
159;55.7620534;37.6218381;Sean O'Neill;;;1
160;55.7580391;37.6274144;Легенды;;http://www.barlegendy.ru;1
161;55.7522652;37.5952384;Шемрок;;;1
162;55.6474309;37.7248221;Кружка;;;1
163;55.7650604;37.6085225;Beermarket;"Mo,Su 11:00-21:30; Tu-Sa 11:00-23:00";;1
164;55.7626433;37.6064022;Craft Republic;Mo-Su 14:00-24:00;;1
165;55.7622186;37.6135958;Tap&Barrel;"Mo-Su 12:00-24:00; Fr,Sa 12:00-06:00";http://tbpub.ru;1
166;55.7700151;37.6789812;Брюгге;"Mo-Su 12:00-01:00; Fr,Sa 12:00-03:00";http://bruggepub.com;1
167;55.7750148;37.4834689;Пив&Бург;"Mo-Su 12:00-03:00; Fr,Sa 12:00-06:00";http://piv-burg.ru;1
168;55.7818455;37.6013469;SПБ;"Mo-Fr 00:00-01:00,12:00-24:00; Sa,Su 00:00-05:00,12:00-24:00";http://www.barspb.ru;1
169;55.7559618;37.5614842;Blacksmith;24/7;http://blackpub.ru/;1
170;55.7822612;37.5993117;Grace O'Malley;"Mo-Th 12:00-24:00; Fr 12:00-03:00; Sa,Su 14:00-24:00";http://www.graceomalley.ru;1
171;55.7038933;37.7731786;Тренчин;;;1
172;55.706677;37.7598661;Пятница Паб;;;1
173;55.7287292;37.623619;Кружка;;http://kruzhka.ru;1
174;55.7621915;37.6203592;The White Hart;"Mo-Th 12:00-24:00; Fr,Sa 00:00-06:00,12:00-24:00; Su 00:00-06:15,12:00-24:00";http://whitehart.ru;1
175;55.6021453;37.5553061;;;;1
176;55.840062;37.48869;Cuba;;;1
177;55.7699906;37.5972045;Pivbar;Mo-Su 12:00-24:00;;1
178;55.7638785;37.6156079;Originals;;http://originalspub.ru;1
179;55.7647502;37.6081348;White Eagles;"Mo-Fr 12:00-24:00; Sa,Su 00:00-02:30,15:00-24:00";http://vk.com/we_pub;1
180;55.6790516;37.5725096;Бразен;Mo-Su 12:00-00:00;http://www.brazen-pub.ru;1
181;55.7522414;37.596793;Жигули;"Su-Th 12:00-02:00; Fr-Sa 12:00-04:00";http://www.zhiguli.su;1
182;55.7365963;37.6497251;Queen V;;http://www.queenv.ru;1
183;55.8093053;37.40351;Кружка;;http://kruzhka.ru/;1
184;55.7715631;37.682143;Кружка;"Mo-Fr 12:00-24:00; Sa,Su 00:00-04:00,12:00-24:00";http://www.kruzhka.ru;1
185;55.7416045;37.6522906;Craft & Draft;;http://craft-draft.ru;1
186;55.7770972;37.5851811;БИРкрафт;Mo-Su 12:00-24:00;;1
187;55.6770117;37.5053295;London;;;1
188;55.7585785;37.581072;Rocky's;Mo-Su 12:00-24:00;;1
189;55.742124;37.6552813;Варка;"Mo-Th 13:00-24:00; Fr 00:00-02:00,13:00-24:00; Sa 00:00-02:00,14:00-24:00; Su 14:00-24:00";https://www.facebook.com/varkacraftbar;1
190;55.7648086;37.7011374;Pub Daddy;;;1
191;55.7568857;37.7078788;Норвич;;;1
192;55.7408094;37.6090495;Ваня нальёт;Mo-Su 13:00-23:00;;1
193;55.817985;37.630228;Пивной бар;;;1
194;55.7387163;37.653034;Чак Норрис;Mo-Su 14:00-23:00;;1
195;55.7301044;37.6253136;Pitcher;Mo-Su 14:00-24:00;http://pitcher-pub.ru;1
196;55.7608154;37.6461126;ГлавПивМаг;"Mo-Fr 10:00-23:00; Sa,Su 10:00-22:00";http://glavpivmag.com;1
197;55.7578544;37.5871582;Толстой;"Mo-Th 12:00-23:00; Fr 12:00-24:00; Sa 00:00-03:00,12:00-24:00; Su 00:00-03:00,12:00-23:00";http://www.tolstoy.pub;1
198;55.762857;37.5574817;Хлеб и вино;Mo-Su 11:00-24:00;http://xleb-vino.ru;1
199;55.7654056;37.6310027;Чагин;"Mo-Fr 12:00-24:00; Sa,Su 00:00-06:00,12:00-24:00";;1
200;55.8069131;37.7997999;"Пивной ресторан ""Отрыв""";"Mo-Th 12:00-23:30; Fr 12:00-24:00; Sa 00:00-01:00,13:00-24:00; Su 00:00-01:00,13:00-23:00";;1
201;55.748075;37.7751325;Пенная галерея - Рабочий класс;;;1
202;55.7647806;37.65473;Сильвер'с;Mo-Su 10:00-24:00;http://www.silverspub.com;1
203;55.7512978;37.6070209;Rule Taproom;"Tu-Fr 18:00-24:00; Sa,Su 00:00-02:00,18:00-24:00";http://ruletaproom.tilda.ws;1
204;55.7632689;37.6546534;Бутылка, кружка и котел;"Su-Th 12:00-23:00; Fr-Sa 12:00-00:00";;1
205;55.682974;37.8446029;Брудер на Привольной;;http://julebino.beerbruder.ru/;1
206;55.7651193;37.6023592;Crafter;;https://vk.com/crafterbar;1
207;55.7981189;37.5270463;Сова и топор;Mo-Su 12:00-23:00;;1
208;55.7741378;37.6183783;Little Craft Bar;Mo-Su 15:00-23:00;http://Facebook.com/littlecraftbar;1
209;55.777158;37.5852015;Paddy's Irish Pub & Eatery;"Mo-Th 11:00-23:00; Fr 11:00-24:00; Sa 00:00-03:00,12:00-24:00; Su 00:00-03:00,12:00-23:00";http://www.facebook.com/paddysmoscow/;1
210;55.7821441;37.5996264;Fcking Craft Pub;"Mo-Su 00:00-02:00,12:00-24:00; Tu-Fr 12:00-24:00";;1
211;55.7707393;37.5963974;PasternakBar;"Mo-Th 17:00-24:00; Fr 17:00-05:00; Sa 15:00-05:00; Su 15:00-00:00";http://www.pasternak-bar.ru;1
212;55.7555895;37.6650128;Kraftwerk;"Mo-Su 00:00-02:00,09:00-24:00; Tu-Fr 09:00-24:00";http://kraftwerkbar.ru;1
213;55.78275;37.7051252;Rolling Barrels;Mo-Su 11:00-23:00;;1
214;55.76504;37.6082931;Craft Station;"Mo 11:45-24:00; Tu-Fr 00:00-03:00,11:45-24:00; Sa,Su 00:00-06:00,11:45-24:00";http://craftstation.ru;1
215;55.7718194;37.6195044;На кранах;"Mo-Fr 13:00-24:00; Sa,Su 00:00-02:00,14:00-24:00";;1
216;55.7579534;37.637147;Hardy;Mo-Su 12:00-24:00;;1
217;55.7586965;37.6389337;Лара Крафт;"Mo-Su 09:00-23:00; Fr,Sa 09:00-24:00";;1
218;55.7699299;37.6324843;Beer Happens;"Mo-Fr 12:00-24:00; Sa,Su 00:00-02:00,12:00-24:00";http://beerhappens.ru;1
219;55.7805185;37.6017759;The Tipsy Pub;"Mo-Fr 08:00-24:00; Sa 00:00-06:00,12:00-24:00; Su 00:00-03:00,12:00-24:00";;1
220;55.7567831;37.6268855;Pivbar;Mo-Su 12:00-24:00;;1
221;55.7112947;37.6122014;Ресторанчик Фрау Шнапсбир;Mo-Su 12:00-00:00;www.frau-shnapsbir.ru;1
222;55.7415954;37.6516261;Hlstk;"Mo-Fr 12:00-24:00; Sa,Su 00:00-03:00,12:00-24:00";;1
223;55.7745593;37.5816381;Вad.Вro.Вar;Mo-Su 13:00-24:00;;1
224;55.7708102;37.6251978;Герои;"Mo-Fr 12:00-24:00; Sa,Su 00:00-03:00,12:00-24:00";;1
225;55.7412551;37.6267881;Underdog;Mo-Su 12:00-24:00;;1
226;55.6472185;37.7155336;Разливное пиво;;;1
227;55.8352269;37.4906755;Beertep Craft Pub;Mo-Su 13:00-24:00;;1
228;55.7696396;37.6470135;Staropramen Pub&Grill;"Mo-Su 12:00-23:00; Fr,Sa 12:00-24:00";http://www.staropramenpub.ru;1
229;55.7523268;37.5971319;Пайс паб;;;1
230;55.808348;37.4944833;Букингем;;http://www.bukingempab.ru;1
231;55.7973508;37.7995727;Black Cat Pub;Mo-Su 12:00-23:00;;1
232;55.8190063;37.5049757;Кружка;"Su-Th 12:00-00:00; Fr-Sa 12:00-04:00";http://www.kruzhka.ru;1
233;55.7573861;37.6335796;Борода;"Mo-Fr 12:00-24:00; Sa,Su 00:00-05:00,12:00-24:00";;1
234;55.8167469;37.4985752;Пиво есть!;Mo-Su 12:00-23:00;http://pivo-est.ru;1
235;55.7414407;37.6283865;Parka;"Mo-Th 13:00-24:00; Fr-Su 00:00-02:00,13:00-24:00";;1
236;55.7586619;37.6402184;Бонни & Клайд;Mo-Su 11:00-24:00;;1
237;55.7631704;37.5551763;RightHops;"Mo-Th 12:00-23:00; Fr 12:00-24:00; Sa 00:00-02:00,12:00-24:00; Su 00:00-02:00,12:00-23:00";;1
238;55.85219;37.6457734;Бирхаус Паб;;;1
239;55.7336634;37.5638947;Немец-Перец. Колбаса;Mo-Su 12:00-24:00;;1
240;55.7532432;37.7144131;;;;1
241;55.8010669;37.636731;Beef time;;;1
242;55.6774904;37.6516975;;;;1
243;55.8071271;37.6169524;Джолли Дог Паб;;;1
244;55.7504335;37.5822463;Проточный;Tu-Su 11:00-23:00;;1
245;55.8567596;37.4929272;Йоркшир;Mo-Su 12:00-01:00;;1
246;55.7078425;37.7434664;Пивная на 11-ой;;;1
247;55.8183558;37.5739085;Сварня;"Su-Th 11:00-23:00; Fr-Sa 12:00-02:00";http://www.svarnya.ru;1
248;55.8556158;37.4762569;Кружка;"Mo-Fr 00:00-01:00,10:00-24:00; Sa,Su 00:00-04:00,10:00-24:00";http://www.kruzhka.ru;1
249;55.7044532;37.6536807;1875;24/7;;1
250;55.7495326;37.7170052;Нора;12:00-23:00;;1
251;55.7684351;37.6322549;"Пивница ""Чертовка""";;http://pivnica-chertovka.ru/;1
252;55.6650808;37.4718911;One More Pub;Mo-Su 12:00-00:00;http://www.onemorepub.ru/;1
253;55.7691697;37.6595334;Лиса и гусь;Mo-Su 12:00-24:00;;1
254;55.7733469;37.6326226;Пилигрим;;;1
255;55.7604851;37.646461;Beer Mood;"Mo-Fr 11:00-24:00; Sa,Su 00:00-02:00,11:00-24:00";;1
256;55.7424215;37.6516814;Стейк и Пинта;"Mo-Fr 12:00-24:00; Sa,Su 15:00-24:00";http://steakandpint.ru;1
257;55.6474347;37.6187786;Иоркшир;;;1
258;55.7852049;37.521943;Виктория&Альберт;Mo-Su 10:00-00:00;http://vapub.ru;1
259;55.7110659;37.6186756;Beerness;Mo-Su 12:00-00:00;http://www.beerness.ru;1
260;55.7826126;37.7173033;SПБ;;;1
261;55.7413471;37.6527894;The BEST bar;;https://vk.com/thebestbar;1
262;55.7572779;37.6324882;Los Bandidos;Mo-Su 14:00-24:00;;1
263;55.6802582;37.6251269;Салют;Mo-Su 10:00-22:00;;1
264;55.7596663;37.6453292;Сосна и Липа;Mo-Su 15:00-23:00;;1
265;55.7539873;37.7100426;Tom pub;;;1
266;55.7782233;37.5843734;Blacksmith;;http://blackpub.ru;1
267;55.7329113;37.6437065;Crab pub;;http://crabpub.ru;1
268;55.7776614;37.4586421;Dead Rabbit;;;1
269;55.7605498;37.6624712;Drunk Punk;Mo-Su 00:00-01:00,14:00-24:00;;1
270;55.7624174;37.6078159;Howard Loves Craft;Mo-Su 12:00-24:00;http://howardlovescraft.ru;1
271;55.7408369;37.6290825;O'Donoghue's;Mo-Su 12:00-23:45;;1
272;55.7796398;37.6445634;Sсhvarz Kaiser;;;1
273;55.7589743;37.5798002;БарКрафт;;http://bar-craft.com;1
274;55.7715898;37.6826651;Пару баб;Mo-Su 00:00-02:00,12:00-24:00;https://vk.com/parubab;1
275;55.7153155;37.6198013;Пивная Библиотека;Mo-Su 11:00-23:00;https://vk.com/beerlibrarymoscow;1
276;55.7405062;37.6171741;Рэд Код;;http://redcodebar.ru;1
277;55.7779865;37.6066571;Лига Пап;Mo-Su 12:00-24:00;http://www.ligapap.ru;1
278;55.781855;37.6009024;Биртайм;Mo-Su 12:00-24:00;;1
279;55.7822306;37.5997401;Пивной дом M&G;;http://pivdom-msk.ru/;1
280;55.767205;37.606172;The Cross Keys;;;1
281;55.8661384;37.4930729;Пенное & Колбаса;24/7;;1
282;55.7591939;37.6248371;Jawsspot;"Mo-Fr 12:00-24:00; Sa,Su 00:00-02:00,12:00-24:00";;1
283;55.762265;37.6127484;Connolly station;"Fr-Sa 12:00-03:00; Tu-Th 12:00-01:00; Su-Mo 12:00-00:00";;1
284;55.7756802;37.5845379;Craft Point;;http://craftpoint.msk.ru;1
285;55.7075841;37.5765188;Loading;11:00-23:00;;1
286;55.78478;37.623576;Paulaner Brauhaus;"Su-Th 12:00-00:00; Fr-Sa 12:00-02:00";http://paulaner-brauhaus.ru;1
287;55.7651713;37.5906122;Craft Noir;;https://vk.com/craftnoir;1
288;55.7658104;37.6047126;ГлавПивМаг;Mo-Su 00:00-03:00,10:00-24:00;http://glavpivmag.com;1
289;55.7696195;37.5820613;Раковая на Тишинке;;https://vk.com/public135260474;1
290;55.8267622;37.436009;Beer & Beard;Mo-Su 13:00-06:00;https://vk.com/beerbeardbar;1
291;55.7296309;37.6328905;Oh, My Craft!;"Mo-Fr 12:00-23:30; Sa,Su 14:00-23:30";http://mycraftpub.ru;1
292;55.757904;37.6390834;Pauwel Kwak;Mo-Su 12:00-24:00;http://kwakpub.ru;1
293;55.7740963;37.6319891;Rosie O'Grady's;;http://rosie.ru/;1
294;55.7429453;37.6275886;Блэк Харп;;;1
295;55.7825344;37.5313365;Изи Паб;;;1
296;55.7540579;37.8003322;Пивной погребок;;;1
297;55.7780901;37.4615927;Johny Josper;;;1
298;55.7622871461686;37.5648615631383;John Bull;;http://www.rmcom.ru/page-john-bull;1
299;55.6926763;37.53392235;Урюк Универ;"Su-Th 12:00-00:00; Fr 12:00-03:00; Sa 12:00-03:00";http://uryuk.me;1
300;55.7732313488165;37.669272890801;Археология;17:30-00:00;http://vk.com/club472701;1
301;55.78904605;37.7491432;Кружка;;http://www.kruzhka.ru/;1
302;55.699335750939;37.7749895978177;Lovebeer;11:00-24:00;;1
303;55.72937445;37.5991389;Крылышко или ножка;;https://www.facebook.com/wingorleg;1
304;55.8080348393555;37.5191656216614;Папа Джонс;;https://www.papajohns.ru/adresa/picceriya-44;1
305;55.8025423532782;37.5825749130458;Beermаркет;;http://www.beermarket.su;1
306;55.7363567171316;37.6705797679156;1516;"Mo-Su 12:00-24:00; Fr,Sa 12:00-02:00";http://www.1516pub.ru;1
307;55.7033839273806;37.7641987431599;"Бар ""Штаб""";;;1
308;55.7975292749017;37.6063727304247;Wooden House;Mo-Su 12:00-23:00;;1
309;55.77629695;37.6805926;Альбион;;https://vk.com/pubalbion;1
310;55.9056134;37.7287193;Мустанг;;;1
311;55.5917088;37.3662609;Начальник Чукотки;;;1
312;55.8939675;37.4510173;Спорт бар;;;1
313;55.8146597;37.3648724;За ПивОм;;http://www.za-pivom.ru;1
314;55.6817091;37.8964192;;;;1
315;55.7933445;37.8417485;Пехорка;;;1
316;55.6690745;37.8750187;Beer Hall;;;1
317;55.6682329;37.8827967;;;;1
318;55.815517;37.3528498;The Firm;"Mo-Fr 14:00-23:00; Sa,Su 12:00-23:00";;1
319;55.8159627;37.3683525;Old Irish Pub;"Mo-Fr 14:00-23:00; Sa,Su 12:00-23:00";;1
320;55.8182534;37.3721194;Beero-Mir;;http://vk.com/club92832389;1
321;55.9047232;37.7256682;Пивариум;;;1
